NORAD_CAT_ID,OBJECT_NAME,OBJECT_TYPE,EPOCH,MEAN_MOTION,ECCENTRICITY,INCLINATION,RA_OF_ASC_NODE,ARG_OF_PERICENTER,MEAN_ANOMALY,BSTAR,MEAN_MOTION_DOT,MEAN_MOTION_DDOT,TLE_LINE0,TLE_LINE1,TLE_LINE2,SEMIMAJOR_AXIS,PERIOD,APOGEE,PERIGEE,DECAYED
55670.0,STARLINK-5423,PAYLOAD,2023-08-24 22:00:00,15.17573527,0.0003403,70.0003,344.0491,278.0402,101.403,-0.052151,-0.00968801,0.0,0 STARLINK-5423,1 55670U 23021AU  23236.91667824 -.00968801  00000-0 -52151-1 0  9999,2 55670  70.0003 344.0491 0003403 278.0402 101.4030 15.17573527  6067,6891.314,94.888,515.524,510.833,0.0
55670.0,STARLINK-5423,PAYLOAD,2023-08-25 14:00:01,15.16239939,0.0003388,70.0006,342.319,278.2099,140.7329,-0.051076,-0.00917179,0.0,0 STARLINK-5423,1 55670U 23021AU  23237.58334491 -.00917179  00000-0 -51076-1 0  9991,2 55670  70.0006 342.3190 0003388 278.2099 140.7329 15.16239939 30107,6895.354,94.972,519.555,514.883,0.0
55670.0,STARLINK-5423,PAYLOAD,2023-08-26 00:00:02,15.1543179,0.0003229,70.0005,341.2393,276.3021,255.7932,-0.053487,-0.00936988,0.0,0 STARLINK-5423,1 55670U 23021AU  23238.00002315 -.00936988  00000-0 -53487-1 0  9993,2 55670  70.0005 341.2393 0003229 276.3021 255.7932 15.15431790  5968,6897.805,95.022,521.897,517.443,0.0
55670.0,STARLINK-5423,PAYLOAD,2023-08-26 14:00:01,15.14280056,0.0003322,70.0008,339.7306,279.1427,193.168,-0.053666,-0.00911856,0.0,0 STARLINK-5423,1 55670U 23021AU  23238.58334491 -.00911856  00000-0 -53666-1 0  9995,2 55670  70.0008 339.7306 0003322 279.1427 193.1680 15.14280056 30253,6901.302,95.095,525.46,520.875,0.0
55670.0,STARLINK-5423,PAYLOAD,2023-08-27 00:00:00,15.13471515,0.0003244,70.0008,338.6542,275.4396,307.0271,-0.056141,-0.00930878,0.0,0 STARLINK-5423,1 55670U 23021AU  23239.00001157 -.00930878  00000-0 -56141-1 0  9999,2 55670  70.0008 338.6542 0003244 275.4396 307.0271 15.13471515  6054,6903.76,95.145,527.864,523.385,0.0
55670.0,STARLINK-5423,PAYLOAD,2023-08-27 14:00:01,15.123196,0.000327,70.001,337.1501,279.2581,239.3801,-0.056252,-0.00905036,0.0,0 STARLINK-5423,1 55670U 23021AU  23239.58334491 -.00905036  00000-0 -56252-1 0  9993,2 55670  70.0010 337.1501 0003270 279.2581 239.3801 15.12319600 30400,6907.265,95.218,531.389,526.871,0.0
55670.0,STARLINK-5423,PAYLOAD,2023-08-27 22:00:00,15.11699117,0.0003184,70.0009,336.2916,278.4805,254.025,-0.0612,-0.00962949,0.0,0 STARLINK-5423,1 55670U 23021AU  23239.91667824 -.00962949  00000-0 -61200-1 0  9994,2 55670  70.0009 336.2916 0003184 278.4805 254.0250 15.11699117  6051,6909.155,95.257,533.22,528.82,0.0
55670.0,STARLINK-5423,PAYLOAD,2023-08-28 06:00:02,15.11026373,0.0003175,70.0013,335.4341,273.3442,272.3172,-0.058386,-0.00906014,0.0,0 STARLINK-5423,1 55670U 23021AU  23240.25002315 -.00906014  00000-0 -58386-1 0  9993,2 55670  70.0013 335.4341 0003175 273.3442 272.3172 15.11026373 30501,6911.206,95.299,535.265,530.876,0.0
55670.0,STARLINK-5423,PAYLOAD,2023-08-28 22:00:00,15.09740444,0.0003169,70.0011,333.7215,277.7402,291.7056,-0.064474,-0.00960965,0.0,0 STARLINK-5423,1 55670U 23021AU  23240.91667824 -.00960965  00000-0 -64474-1 0  9998,2 55670  70.0011 333.7215 0003169 277.7402 291.7056 15.09740444 30603,6915.129,95.381,539.186,534.803,0.0
55670.0,STARLINK-5423,PAYLOAD,2023-08-29 14:00:01,15.0839926,0.0003247,70.0014,332.0127,279.1569,311.0144,-0.061678,-0.00891321,0.0,0 STARLINK-5423,1 55670U 23021AU  23241.58334491 -.00891321  00000-0 -61678-1 0  9995,2 55670  70.0014 332.0127 0003247 279.1569 311.0144 15.08399260 30707,6919.228,95.465,543.34,538.846,0.0
55670.0,STARLINK-5423,PAYLOAD,2023-08-29 22:00:00,15.07781892,0.0003201,70.0013,331.1595,277.59,321.7549,-0.06789,-0.00959062,0.0,0 STARLINK-5423,1 55670U 23021AU  23241.91667824 -.00959062  00000-0 -67890-1 0  9990,2 55670  70.0013 331.1595 0003201 277.5900 321.7549 15.07781892  5801,6921.116,95.505,545.197,540.766,0.0
55670.0,STARLINK-5423,PAYLOAD,2023-08-30 06:00:00,15.07118215,0.0003194,70.0016,330.3073,273.3976,334.3433,-0.065652,-0.00914325,0.0,0 STARLINK-5423,1 55670U 23021AU  23242.25001157 -.00914325  00000-0 -65652-1 0  9996,2 55670  70.0016 330.3073 0003194 273.3976 334.3433 15.07118215 30807,6923.148,95.547,547.224,542.802,0.0
55670.0,STARLINK-5423,PAYLOAD,2023-08-30 22:00:00,15.0582221,0.00032,70.0012,328.6053,277.8072,344.3973,-0.071304,-0.00955353,0.0,0 STARLINK-5423,1 55670U 23021AU  23242.91667824 -.00955353  00000-0 -71304-1 0  9995,2 55670  70.0012 328.6053 0003200 277.8072 344.3973 15.05822210 30912,6927.12,95.629,551.202,546.768,0.0
55670.0,STARLINK-5423,PAYLOAD,2023-08-31 14:00:01,15.04482844,0.0003199,70.0011,326.9068,277.0803,356.4604,-0.068024,-0.00884503,0.0,0 STARLINK-5423,1 55670U 23021AU  23243.58334491 -.00884503  00000-0 -68024-1 0  9993,2 55670  70.0011 326.9068 0003199 277.0803 356.4604 15.04482844 31010,6931.231,95.714,555.313,550.878,0.0
55670.0,STARLINK-5423,PAYLOAD,2023-08-31 22:00:01,15.03862148,0.0003124,70.0007,326.0587,273.6393,4.447,-0.074771,-0.0096173,0.0,0 STARLINK-5423,1 55670U 23021AU  23243.91668981 -.00961730  00000-0 -74771-1 0  9998,2 55670  70.0007 326.0587 0003124 273.6393   4.4470 15.03862148  5960,6933.138,95.753,557.169,552.837,0.0
55670.0,STARLINK-5423,PAYLOAD,2023-09-01 06:00:00,15.03206433,0.0003179,70.0009,325.2117,269.9252,11.7974,-0.073181,-0.00917023,0.0,0 STARLINK-5423,1 55670U 23021AU  23244.25001157 -.00917023  00000-0 -73181-1 0  9992,2 55670  70.0009 325.2117 0003179 269.9252  11.7974 15.03206433 31119,6935.154,95.795,559.223,554.814,0.0
55670.0,STARLINK-5423,PAYLOAD,2023-09-01 14:00:01,15.0252543,0.0003214,70.0006,324.3652,276.6788,7.9863,-0.071582,-0.00883444,0.0,0 STARLINK-5423,1 55670U 23021AU  23244.58334491 -.00883444  00000-0 -71582-1 0  9990,2 55670  70.0006 324.3652 0003214 276.6788   7.9863 15.02525430  5798,6937.249,95.839,561.344,556.884,0.0
55670.0,STARLINK-5423,PAYLOAD,2023-09-01 22:00:00,15.01902303,0.0003147,70.0002,323.5197,274.0613,12.7404,-0.078376,-0.00957196,0.0,0 STARLINK-5423,1 55670U 23021AU  23244.91667824 -.00957196  00000-0 -78376-1 0  9990,2 55670  70.0002 323.5197 0003147 274.0613  12.7404 15.01902303  5841,6939.168,95.878,563.216,558.849,0.0
55670.0,STARLINK-5423,PAYLOAD,2023-09-02 14:00:01,15.0056919,0.0003243,70.0001,321.831,276.8746,11.8736,-0.075438,-0.00884054,0.0,0 STARLINK-5423,1 55670U 23021AU  23245.58334491 -.00884054  00000-0 -75438-1 0  9993,2 55670  70.0001 321.8310 0003243 276.8746  11.8736 15.00569190 31313,6943.277,95.964,567.394,562.89,0.0
55670.0,STARLINK-5423,PAYLOAD,2023-09-02 22:00:00,14.99856,0.0003302,69.9997,320.9879,274.856,13.6993,-0.062046,-0.00716208,0.0,0 STARLINK-5423,1 55670U 23021AU  23245.91667824 -.00716208  00000-0 -62046-1 0  9995,2 55670  69.9997 320.9879 0003302 274.8560  13.6993 14.99856000  5897,6945.478,96.009,569.636,565.049,0.0
55670.0,STARLINK-5423,PAYLOAD,2023-09-03 06:00:00,14.99311262,0.0003395,69.9999,320.1458,271.3388,16.2066,-0.00085437,-0.00010535,0.0,0 STARLINK-5423,1 55670U 23021AU  23246.25001157 -.00010535  00000-0 -85437-3 0  9995,2 55670  69.9999 320.1458 0003395 271.3388  16.2066 14.99311262 31419,6947.16,96.044,571.384,566.667,0.0
55670.0,STARLINK-5423,PAYLOAD,2023-09-03 14:00:01,14.99284961,0.0003437,69.9998,319.3036,276.5161,9.6931,0.0012952,0.00015784,0.0,0 STARLINK-5423,1 55670U 23021AU  23246.58334491  .00015784  00000-0  12952-2 0  9991,2 55670  69.9998 319.3036 0003437 276.5161   9.6931 14.99284961  5898,6947.241,96.046,571.494,566.719,0.0
55670.0,STARLINK-5423,PAYLOAD,2023-09-04 14:00:01,14.99287842,0.0003519,69.9996,316.7781,275.1058,7.026,0.0021974,0.00026888,0.0,0 STARLINK-5423,1 55670U 23021AU  23247.58334491  .00026888  00000-0  21974-2 0  9993,2 55670  69.9996 316.7781 0003519 275.1058   7.0260 14.99287842  5950,6947.232,96.046,571.542,566.653,0.0
55670.0,STARLINK-5423,PAYLOAD,2023-09-05 06:00:00,14.99323963,0.000358,69.9998,315.0944,268.995,10.4146,-0.0013922,-0.00017098,0.0,0 STARLINK-5423,1 55670U 23021AU  23248.25001157 -.00017098  00000-0 -13922-2 0  9997,2 55670  69.9998 315.0944 0003580 268.9950  10.4146 14.99323963 31713,6947.121,96.043,571.473,566.499,0.0
55670.0,STARLINK-5423,PAYLOAD,2023-09-05 14:00:01,14.99292615,0.0003549,69.9997,314.2524,274.8526,3.2321,0.0017316,0.00021154,0.0,0 STARLINK-5423,1 55670U 23021AU  23248.58334491  .00021154  00000-0  17316-2 0  9990,2 55670  69.9997 314.2524 0003549 274.8526   3.2321 14.99292615  5936,6947.218,96.045,571.548,566.617,0.0
55670.0,STARLINK-5423,PAYLOAD,2023-09-06 03:10:28,14.99298276,0.0003532,69.9981,312.8665,271.5601,88.5154,8.3908e-05,9.33e-06,0.0,0 STARLINK-5423,1 55670U 23021AU  23249.13227375  .00000933  00000-0  83908-4 0  9998,2 55670  69.9981 312.8665 0003532 271.5601  88.5154 14.99298276 31847,6947.2,96.045,571.519,566.611,0.0
55670.0,STARLINK-5423,PAYLOAD,2023-09-06 15:59:02,14.99299887,0.0003362,69.9985,311.5186,272.152,87.9255,0.00018041,2.114e-05,0.0,0 STARLINK-5423,1 55670U 23021AU  23249.66600442  .00002114  00000-0  18041-3 0  9994,2 55670  69.9985 311.5186 0003362 272.1520  87.9255 14.99299887 32220,6947.195,96.045,571.396,566.725,0.0
55670.0,STARLINK-5423,PAYLOAD,2023-09-07 07:59:46,14.99298476,0.0003202,69.9991,309.8344,275.3228,84.7566,-4.4719e-05,-6.41e-06,0.0,0 STARLINK-5423,1 55670U 23021AU  23250.33317904 -.00000641  00000-0 -44719-4 0  9995,2 55670  69.9991 309.8344 0003202 275.3228  84.7566 14.99298476 32027,6947.2,96.045,571.289,566.84,0.0
55670.0,STARLINK-5423,PAYLOAD,2023-09-07 09:35:51,14.99296657,0.00032,69.9991,309.6659,275.1518,84.9276,-6.1627e-05,-8.48e-06,0.0,0 STARLINK-5423,1 55670U 23021AU  23250.39989781 -.00000848  00000-0 -61627-4 0  9995,2 55670  69.9991 309.6659 0003200 275.1518  84.9276 14.99296657 32335,6947.205,96.045,571.293,566.847,0.0
55670.0,STARLINK-5423,PAYLOAD,2023-09-07 17:36:12,14.99299276,0.0003224,69.9989,308.8234,274.9855,85.0937,-3.1777e-05,-4.83e-06,0.0,0 STARLINK-5423,1 55670U 23021AU  23250.73347961 -.00000483  00000-0 -31777-4 0  9999,2 55670  69.9989 308.8234 0003224 274.9855  85.0937 14.99299276 32380,6947.197,96.045,571.302,566.822,0.0
